NORAD_CAT_ID,OBJECT_NAME,OBJECT_TYPE,EPOCH,MEAN_MOTION,ECCENTRICITY,INCLINATION,RA_OF_ASC_NODE,ARG_OF_PERICENTER,MEAN_ANOMALY,BSTAR,MEAN_MOTION_DOT,MEAN_MOTION_DDOT,TLE_LINE0,TLE_LINE1,TLE_LINE2,SEMIMAJOR_AXIS,PERIOD,APOGEE,PERIGEE,DECAYED
50195.0,STARLINK-3266,PAYLOAD,2023-04-14 00:07:16,15.0885357,0.0001195,53.2173,320.718,82.9579,277.1549,0.00028831,4.305e-05,0.0,0 STARLINK-3266,1 50195U 21125AR  23104.00505535  .00004305  00000-0  28831-3 0  9991,2 50195  53.2173 320.7180 0001195  82.9579 277.1549 15.08853570 76606,6917.839,95.437,540.531,538.877,0.0
50195.0,STARLINK-3266,PAYLOAD,2023-04-14 23:58:03,15.08852626,0.0001223,53.2158,316.2578,83.085,277.0281,0.0002481,3.664e-05,0.0,0 STARLINK-3266,1 50195U 21125AR  23104.99865570  .00003664  00000-0  24810-3 0  9997,2 50195  53.2158 316.2578 0001223  83.0850 277.0281 15.08852626 76272,6917.842,95.437,540.553,538.861,0.0
50195.0,STARLINK-3266,PAYLOAD,2023-04-15 01:33:26,15.08857772,0.0001222,53.2168,315.9609,87.357,272.7562,0.00034231,5.167e-05,0.0,0 STARLINK-3266,1 50195U 21125AR  23105.06489331  .00005167  00000-0  34231-3 0  9991,2 50195  53.2168 315.9609 0001222  87.3570 272.7562 15.08857772 76764,6917.826,95.436,540.536,538.846,0.0
50195.0,STARLINK-3266,PAYLOAD,2023-04-15 20:38:04,15.0884578,0.0001189,53.2172,312.3927,88.1912,271.9216,0.00022128,3.236e-05,0.0,0 STARLINK-3266,1 50195U 21125AR  23105.85977818  .00003236  00000-0  22128-3 0  9997,2 50195  53.2172 312.3927 0001189  88.1912 271.9216 15.08845780 76408,6917.863,95.437,540.55,538.905,0.0
50195.0,STARLINK-3266,PAYLOAD,2023-04-16 14:07:19,15.08830163,7.73e-05,53.2175,309.1208,86.8628,273.2453,5.5046e-05,5.88e-06,0.0,0 STARLINK-3266,1 50195U 21125AR  23106.58842346  .00000588  00000-0  55046-4 0  9998,2 50195  53.2175 309.1208 0000773  86.8628 273.2453 15.08830163 76513,6917.91,95.438,540.31,539.241,0.0
50195.0,STARLINK-3266,PAYLOAD,2023-04-16 20:28:52,15.08850131,0.0001056,53.2164,307.9322,92.8027,267.3086,0.0014472,0.00022826,0.0,0 STARLINK-3266,1 50195U 21125AR  23106.85338391  .00022826  00000-0  14472-2 0  9993,2 50195  53.2164 307.9322 0001056  92.8027 267.3086 15.08850131 77030,6917.849,95.437,540.445,538.984,0.0
50195.0,STARLINK-3266,PAYLOAD,2023-04-17 06:01:10,15.08846727,0.0001096,53.2168,306.1492,231.5313,128.5581,0.0004495,6.874e-05,0.0,0 STARLINK-3266,1 50195U 21125AR  23107.25081698  .00006874  00000-0  44950-3 0  9993,2 50195  53.2168 306.1492 0001096 231.5313 128.5581 15.08846727 76614,6917.86,95.437,540.483,538.967,0.0
50195.0,STARLINK-3266,PAYLOAD,2023-04-17 20:19:39,15.08852766,0.0001077,53.2158,303.4723,100.3263,259.7851,0.0012614,0.00019851,0.0,0 STARLINK-3266,1 50195U 21125AR  23107.84698382  .00019851  00000-0  12614-2 0  9992,2 50195  53.2158 303.4723 0001077 100.3263 259.7851 15.08852766 76703,6917.841,95.437,540.451,538.961,0.0
50195.0,STARLINK-3266,PAYLOAD,2023-04-18 12:13:31,15.08843246,0.0001671,53.2163,300.4972,80.4782,279.6399,0.00060338,9.329e-05,0.0,0 STARLINK-3266,1 50195U 21125AR  23108.50938700  .00009329  00000-0  60338-3 0  9993,2 50195  53.2163 300.4972 0001671  80.4782 279.6399 15.08843246 77281,6917.87,95.437,540.891,538.579,0.0
50195.0,STARLINK-3266,PAYLOAD,2023-04-18 16:59:40,15.08842149,0.0001433,53.2167,299.6072,85.8587,274.2569,0.00033252,5.008e-05,0.0,0 STARLINK-3266,1 50195U 21125AR  23108.70810667  .00005008  00000-0  33252-3 0  9991,2 50195  53.2167 299.6072 0001433  85.8587 274.2569 15.08842149 77318,6917.874,95.437,540.73,538.747,0.0
50195.0,STARLINK-3266,PAYLOAD,2023-04-18 20:10:26,15.08839895,0.0001333,53.216,299.0115,84.7609,275.3535,0.00025503,3.773e-05,0.0,0 STARLINK-3266,1 50195U 21125AR  23108.84058687  .00003773  00000-0  25503-3 0  9999,2 50195  53.2160 299.0115 0001333  84.7609 275.3535 15.08839895 76852,6917.881,95.438,540.668,538.824,0.0
50195.0,STARLINK-3266,PAYLOAD,2023-04-19 18:25:50,15.08848685,0.000125,53.2166,294.8492,77.3831,282.7301,0.00040577,6.177e-05,0.0,0 STARLINK-3266,1 50195U 21125AR  23109.76794492  .00006177  00000-0  40577-3 0  9991,2 50195  53.2166 294.8492 0001250  77.3831 282.7301 15.08848685 77471,6917.854,95.437,540.584,538.854,0.0
50195.0,STARLINK-3266,PAYLOAD,2023-04-20 11:55:05,15.08840049,0.0001171,53.2153,291.5775,75.6129,284.4993,5.2901e-05,5.54e-06,0.0,0 STARLINK-3266,1 50195U 21125AR  23110.49658584  .00000554  00000-0  52901-4 0  9992,2 50195  53.2153 291.5775 0001171  75.6129 284.4993 15.08840049 77582,6917.88,95.438,540.555,538.935,0.0
50195.0,STARLINK-3266,PAYLOAD,2023-04-20 18:16:37,15.08844491,0.0001144,53.215,290.3878,75.0934,285.0185,0.00019341,2.792e-05,0.0,0 STARLINK-3266,1 50195U 21125AR  23110.76154514  .00002792  00000-0  19341-3 0  9992,2 50195  53.2150 290.3878 0001144  75.0934 285.0185 15.08844491 77628,6917.867,95.437,540.523,538.94,0.0
50195.0,STARLINK-3266,PAYLOAD,2023-04-21 05:24:19,15.08841493,0.0001035,53.2152,288.3068,65.9904,294.1197,0.00013539,1.868e-05,0.0,0 STARLINK-3266,1 50195U 21125AR  23111.22522505  .00001868  00000-0  13539-3 0  9999,2 50195  53.2152 288.3068 0001035  65.9904 294.1197 15.08841493 77692,6917.876,95.437,540.457,539.025,0.0
50195.0,STARLINK-3266,PAYLOAD,2023-04-21 18:07:24,15.0884476,9.6e-05,53.2153,285.9274,70.3146,289.7949,0.00035721,5.402e-05,0.0,0 STARLINK-3266,1 50195U 21125AR  23111.75514527  .00005402  00000-0  35721-3 0  9997,2 50195  53.2153 285.9274 0000960  70.3146 289.7949 15.08844760 77290,6917.866,95.437,540.395,539.067,0.0
50195.0,STARLINK-3266,PAYLOAD,2023-04-21 21:18:10,15.0885031,0.0001081,53.2151,285.3324,70.5549,289.556,0.00053559,8.249e-05,0.0,0 STARLINK-3266,1 50195U 21125AR  23111.88762429  .00008249  00000-0  53559-3 0  9998,2 50195  53.2151 285.3324 0001081  70.5549 289.5560 15.08850310 77792,6917.849,95.437,540.462,538.966,0.0
50195.0,STARLINK-3266,PAYLOAD,2023-04-22 11:36:39,15.08845877,0.0001251,53.2156,282.6547,75.6356,284.4774,0.00037274,5.65e-05,0.0,0 STARLINK-3266,1 50195U 21125AR  23112.48378670  .00005650  00000-0  37274-3 0  9995,2 50195  53.2156 282.6547 0001251  75.6356 284.4774 15.08845877 77406,6917.862,95.437,540.593,538.862,0.0
50195.0,STARLINK-3266,PAYLOAD,2023-04-23 11:27:26,15.08833051,0.0001186,53.2159,278.1935,77.4399,282.6725,0.00028855,4.307e-05,0.0,0 STARLINK-3266,1 50195U 21125AR  23113.47739032  .00004307  00000-0  28855-3 0  9991,2 50195  53.2159 278.1935 0001186  77.4399 282.6725 15.08833051 78031,6917.902,95.438,540.587,538.946,0.0
50195.0,STARLINK-3266,PAYLOAD,2023-04-24 09:42:49,15.08875773,7e-05,53.2171,274.03,87.0726,273.0346,0.00109,0.00017119,0.0,0 STARLINK-3266,1 50195U 21125AR  23114.40474032  .00017119  00000-0  10900-2 0  9997,2 50195  53.2171 274.0300 0000700  87.0726 273.0346 15.08875773 77699,6917.771,95.435,540.12,539.152,0.0
50195.0,STARLINK-3266,PAYLOAD,2023-04-24 17:39:44,15.08909967,3.72e-05,53.2164,272.5458,85.8879,274.2156,0.0030085,0.00048011,0.0,0 STARLINK-3266,1 50195U 21125AR  23114.73593343  .00048011  00000-0  30085-2 0  9991,2 50195  53.2164 272.5458 0000372  85.8879 274.2156 15.08909967 77749,6917.667,95.433,539.789,539.274,0.0
50195.0,STARLINK-3266,PAYLOAD,2023-04-25 03:12:03,15.08828651,0.0001273,53.2165,270.7616,105.4777,254.6356,-0.0019147,-0.00030621,0.0,0 STARLINK-3266,1 50195U 21125AR  23115.13337793 -.00030621  00000-0 -19147-2 0  9997,2 50195  53.2165 270.7616 0001273 105.4777 254.6356 15.08828651 77804,6917.915,95.438,540.661,538.899,0.0
50195.0,STARLINK-3266,PAYLOAD,2023-04-26 10:59:49,15.08855252,7.65e-05,53.215,264.8133,139.3683,220.7366,0.0012135,0.00019086,0.0,0 STARLINK-3266,1 50195U 21125AR  23116.45821206  .00019086  00000-0  12135-2 0  9990,2 50195  53.2150 264.8133 0000765 139.3683 220.7366 15.08855252 78480,6917.834,95.437,540.228,539.17,0.0
50195.0,STARLINK-3266,PAYLOAD,2023-04-27 02:53:40,15.08874633,1.03e-05,53.2165,261.8421,133.1474,226.9526,0.0013975,0.00022045,0.0,0 STARLINK-3266,1 50195U 21125AR  23117.12060313  .00022045  00000-0  13975-2 0  9991,2 50195  53.2165 261.8421 0000103 133.1474 226.9526 15.08874633 78580,6917.775,95.435,539.711,539.568,0.0
50195.0,STARLINK-3266,PAYLOAD,2023-04-27 18:47:30,15.08866569,3.28e-05,53.2146,258.8666,225.6043,134.4922,0.0013328,0.00021003,0.0,0 STARLINK-3266,1 50195U 21125AR  23117.78299436  .00021003  00000-0  13328-2 0  9998,2 50195  53.2146 258.8666 0000328 225.6043 134.4922 15.08866569 78205,6917.799,95.436,539.891,539.437,0.0
50195.0,STARLINK-3266,PAYLOAD,2023-04-28 02:44:26,15.08857339,4.47e-05,53.2148,257.3796,268.4848,91.6093,0.00042501,6.486e-05,0.0,0 STARLINK-3266,1 50195U 21125AR  23118.11419072  .00006486  00000-0  42501-3 0  9990,2 50195  53.2148 257.3796 0000447 268.4848  91.6093 15.08857339 78258,6917.827,95.436,540.002,539.383,0.0
50195.0,STARLINK-3266,PAYLOAD,2023-04-28 09:05:59,15.08851496,0.0001231,53.2143,256.19,76.0032,284.1097,0.00048574,7.453e-05,0.0,0 STARLINK-3266,1 50195U 21125AR  23118.37915814  .00007453  00000-0  48574-3 0  9994,2 50195  53.2143 256.1900 0001231  76.0032 284.1097 15.08851496 78292,6917.845,95.437,540.562,538.859,0.0
50195.0,STARLINK-3266,PAYLOAD,2023-04-29 02:35:13,15.08839113,0.000111,53.2111,252.9217,58.4173,301.6927,0.00038228,5.801e-05,0.0,0 STARLINK-3266,1 50195U 21125AR  23119.10779908  .00005801  00000-0  38228-3 0  9998,2 50195  53.2111 252.9217 0001110  58.4173 301.6927 15.08839113 78400,6917.883,95.438,540.516,538.98,0.0
50195.0,STARLINK-3266,PAYLOAD,2023-04-29 13:42:55,15.08843738,6.23e-05,53.2152,250.8392,44.5649,315.5394,0.00034765,5.25e-05,0.0,0 STARLINK-3266,1 50195U 21125AR  23119.57147643  .00005250  00000-0  34765-3 0  9994,2 50195  53.2152 250.8392 0000623  44.5649 315.5394 15.08843738 78958,6917.869,95.437,540.165,539.303,0.0
50195.0,STARLINK-3266,PAYLOAD,2023-04-30 13:33:42,15.08846903,7.93e-05,53.2153,246.3774,73.6681,286.4398,0.00026302,3.901e-05,0.0,0 STARLINK-3266,1 50195U 21125AR  23120.56507419  .00003901  00000-0  26302-3 0  9995,2 50195  53.2153 246.3774 0000793  73.6681 286.4398 15.08846903 79105,6917.859,95.437,540.273,539.176,0.0
